STARLINK-1723           
1 46333U 20062J   26061.09872005  .01514281  16846-2  14230-2 0  9996
2 46333  53.0378   1.3593 0005459 186.1971 173.8997 16.11796283303851
STARLINK-1687           
1 46541U 20070K   26061.37758184  .01969884  36684-2  17109-2 0  9991
2 46541  53.0314 128.3648 0010926   1.6863 358.4207 16.13337824299537
STARLINK-3269           
1 50194U 21125AQ  26061.27952170  .01700672  22293-2  17208-2 0  9991
2 50194  53.2008 168.5909 0010961 333.3841  26.6631 16.10719979237139
